{
    "links": {
        "self": "http://www.neowsapp.com/rest/v1/neo/3629115?api_key=iIulBulltgU6a56xZRHN4H3l9WmuAYTsLGpBGhQ2"
    },
    "id": "3629115",
    "neo_reference_id": "3629115",
    "name": "(2013 ER)",
    "designation": "2013 ER",
    "nasa_jpl_url": "http://ssd.jpl.nasa.gov/sbdb.cgi?sstr=3629115",
    "absolute_magnitude_h": 25.6,
    "estimated_diameter": {
        "kilometers": {
            "estimated_diameter_min": 0.0201629919,
            "estimated_diameter_max": 0.0450858206
        },
        "meters": {
            "estimated_diameter_min": 20.1629919443,
            "estimated_diameter_max": 45.0858206172
        },
        "miles": {
            "estimated_diameter_min": 0.0125286985,
            "estimated_diameter_max": 0.0280150214
        },
        "feet": {
            "estimated_diameter_min": 66.1515504905,
            "estimated_diameter_max": 147.9193637137
        }
    },
    "is_potentially_hazardous_asteroid": false,
    "close_approach_data": [
        {
            "close_approach_date": "2013-03-06",
            "close_approach_date_full": "2013-Mar-06 17:50",
            "epoch_date_close_approach": 1362592200000,
            "relative_velocity": {
                "kilometers_per_second": "5.8645993315",
                "kilometers_per_hour": "21112.5575935069",
                "miles_per_hour": "13118.5222446988"
            },
            "miss_distance": {
                "astronomical": "0.0396630679",
                "lunar": "15.4289334131",
                "kilometers": "5933510.475505373",
                "miles": "3686912.4450772274"
            },
            "orbiting_body": "Earth"
        },
        {
            "close_approach_date": "2116-04-20",
            "close_approach_date_full": "2116-Apr-20 09:51",
            "epoch_date_close_approach": 4616819460000,
            "relative_velocity": {
                "kilometers_per_second": "14.3697605825",
                "kilometers_per_hour": "51731.138096829",
                "miles_per_hour": "32143.717446888"
            },
            "miss_distance": {
                "astronomical": "0.3083328538",
                "lunar": "119.9414801282",
                "kilometers": "46125938.179501406",
                "miles": "28661328.9412591628"
            },
            "orbiting_body": "Earth"
        },
        {
            "close_approach_date": "2121-05-02",
            "close_approach_date_full": "2121-May-02 13:53",
            "epoch_date_close_approach": 4775637180000,
            "relative_velocity": {
                "kilometers_per_second": "19.9695744913",
                "kilometers_per_hour": "71890.4681685839",
                "miles_per_hour": "44669.9411795292"
            },
            "miss_distance": {
                "astronomical": "0.4981248135",
                "lunar": "193.7705524515",
                "kilometers": "74518411.093747245",
                "miles": "46303593.527492181"
            },
            "orbiting_body": "Earth"
        }
    ],
    "orbital_data": {
        "orbit_id": "7",
        "orbit_determination_date": "2017-04-06 08:46:37",
        "first_observation_date": "2013-03-03",
        "last_observation_date": "2013-03-11",
        "data_arc_in_days": 8,
        "observations_used": 37,
        "orbit_uncertainty": "7",
        "minimum_orbit_intersection": ".0385177",
        "jupiter_tisserand_invariant": "3.881",
        "epoch_osculation": "2459000.5",
        "eccentricity": ".4427040575926188",
        "semi_major_axis": "1.848054425185814",
        "inclination": "4.701494183978887",
        "ascending_node_longitude": "339.9493794401153",
        "orbital_period": "917.6362520561134",
        "perihelion_distance": "1.029913232504059",
        "perihelion_argument": "182.8437665792764",
        "aphelion_distance": "2.666195617867568",
        "perihelion_time": "2459106.429386440482",
        "mean_anomaly": "318.4425974528286",
        "mean_motion": ".3923123124150352",
        "equinox": "J2000",
        "orbit_class": {
            "orbit_class_type": "AMO",
            "orbit_class_description": "Near-Earth asteroid orbits similar to that of 1221 Amor",
            "orbit_class_range": "1.017 AU < q (perihelion) < 1.3 AU"
        }
    },
    "is_sentry_object": false
}